NORAD_CAT_ID,OBJECT_NAME,OBJECT_TYPE,EPOCH,MEAN_MOTION,ECCENTRICITY,INCLINATION,RA_OF_ASC_NODE,ARG_OF_PERICENTER,MEAN_ANOMALY,BSTAR,MEAN_MOTION_DOT,MEAN_MOTION_DDOT,TLE_LINE0,TLE_LINE1,TLE_LINE2,SEMIMAJOR_AXIS,PERIOD,APOGEE,PERIGEE,DECAYED
52661.0,STARLINK-4042,PAYLOAD,2024-07-10 11:04:01,15.0883996,0.000127,53.218,0.0776,75.2001,284.9132,0.00011846,1.598e-05,0.0,0 STARLINK-4042,1 52661U 22053F   24192.46113320  .00001598  00000-0  11846-3 0  9996,2 52661  53.2180   0.0776 0001270  75.2001 284.9132 15.08839960119375,6917.881,95.438,540.624,538.867,0.0
52661.0,STARLINK-4042,PAYLOAD,2024-07-10 17:25:34,15.08844119,0.0001243,53.2174,358.8881,75.7461,284.3669,0.00016974,2.415e-05,0.0,0 STARLINK-4042,1 52661U 22053F   24192.72609115  .00002415  00000-0  16974-3 0  9993,2 52661  53.2174 358.8881 0001243  75.7461 284.3669 15.08844119119410,6917.868,95.437,540.593,538.873,0.0
52661.0,STARLINK-4042,PAYLOAD,2024-07-11 14:05:35,15.08842227,9.76e-05,53.217,355.0219,76.8865,283.2236,0.00021519,3.139e-05,0.0,0 STARLINK-4042,1 52661U 22053F   24193.58721178  .00003139  00000-0  21519-3 0  9997,2 52661  53.2170 355.0219 0000976  76.8865 283.2236 15.08842227119542,6917.874,95.437,540.414,539.063,0.0
52661.0,STARLINK-4042,PAYLOAD,2024-07-11 17:16:20,15.08869343,0.0001019,53.2175,354.4282,71.0996,289.0107,-0.00055496,-9.116e-05,0.0,0 STARLINK-4042,1 52661U 22053F   24193.71967617 -.00009116  00000-0 -55496-3 0  9996,2 52661  53.2175 354.4282 0001019  71.0996 289.0107 15.08869343119562,6917.791,95.436,540.361,538.951,0.0
52661.0,STARLINK-4042,PAYLOAD,2024-07-11 20:27:07,15.08854215,0.000101,53.2172,353.8308,90.8244,269.2863,0.0001991,2.884e-05,0.0,0 STARLINK-4042,1 52661U 22053F   24193.85216442  .00002884  00000-0  19910-3 0  9998,2 52661  53.2172 353.8308 0001010  90.8244 269.2863 15.08854215119580,6917.837,95.437,540.401,539.003,0.0
52661.0,STARLINK-4042,PAYLOAD,2024-07-12 10:45:36,15.08836207,0.0001056,53.2183,351.1576,66.4221,293.6882,2.6979e-05,1.42e-06,0.0,0 STARLINK-4042,1 52661U 22053F   24194.44833533  .00000142  00000-0  26979-4 0  9999,2 52661  53.2183 351.1576 0001056  66.4221 293.6882 15.08836207119677,6917.892,95.438,540.488,539.026,0.0
52661.0,STARLINK-4042,PAYLOAD,2024-07-12 13:56:22,15.08841765,0.0001555,53.2157,350.555,126.4907,233.6229,0.00017058,2.428e-05,0.0,0 STARLINK-4042,1 52661U 22053F   24194.58081171  .00002428  00000-0  17058-3 0  9993,2 52661  53.2157 350.5550 0001555 126.4907 233.6229 15.08841765119691,6917.875,95.437,540.816,538.664,0.0
52661.0,STARLINK-4042,PAYLOAD,2024-07-12 20:17:54,15.08846275,0.0001151,53.2181,349.3694,99.4424,260.6698,0.0001572,2.215e-05,0.0,0 STARLINK-4042,1 52661U 22053F   24194.84577019  .00002215  00000-0  15720-3 0  9991,2 52661  53.2181 349.3694 0001151  99.4424 260.6698 15.08846275119734,6917.861,95.437,540.522,538.93,0.0
52661.0,STARLINK-4042,PAYLOAD,2024-07-13 10:36:23,15.08838894,0.0001201,53.2178,346.6919,99.0083,261.1045,-3.0878e-06,-3.37e-06,0.0,0 STARLINK-4042,1 52661U 22053F   24195.44193480 -.00000337  00000-0 -30878-5 0  9992,2 52661  53.2178 346.6919 0001201  99.0083 261.1045 15.08838894119823,6917.884,95.438,540.58,538.918,0.0
52661.0,STARLINK-4042,PAYLOAD,2024-07-13 13:47:09,15.08841894,0.0001145,53.2173,346.0975,90.2696,269.8427,4.1714e-05,3.76e-06,0.0,0 STARLINK-4042,1 52661U 22053F   24195.57441370  .00000376  00000-0  41714-4 0  9991,2 52661  53.2173 346.0975 0001145  90.2696 269.8427 15.08841894119849,6917.875,95.437,540.532,538.948,0.0
52661.0,STARLINK-4042,PAYLOAD,2024-07-13 16:57:55,15.08844548,0.0001197,53.218,345.5058,89.1995,270.9134,0.00010774,1.427e-05,0.0,0 STARLINK-4042,1 52661U 22053F   24195.70689271  .00001427  00000-0  10774-3 0  9999,2 52661  53.2180 345.5058 0001197  89.1995 270.9134 15.08844548119868,6917.866,95.437,540.56,538.903,0.0
52661.0,STARLINK-4042,PAYLOAD,2024-07-14 13:37:56,15.08837885,0.0001446,53.2178,341.6377,70.8393,289.2755,7.6921e-05,9.36e-06,0.0,0 STARLINK-4042,1 52661U 22053F   24196.56801734  .00000936  00000-0  76921-4 0  9995,2 52661  53.2178 341.6377 0001446  70.8393 289.2755 15.08837885119994,6917.887,95.438,540.752,538.752,0.0
52661.0,STARLINK-4042,PAYLOAD,2024-07-14 16:48:42,15.08846223,0.0001316,53.2201,341.0491,93.0857,267.0285,0.00025325,3.746e-05,0.0,0 STARLINK-4042,1 52661U 22053F   24196.70049484  .00003746  00000-0  25325-3 0  9990,2 52661  53.2201 341.0491 0001316  93.0857 267.0285 15.08846223120013,6917.861,95.437,540.637,538.816,0.0
52661.0,STARLINK-4042,PAYLOAD,2024-07-15 02:21:01,15.08841408,0.0001171,53.2174,339.2608,77.6856,282.4267,0.00013922,1.929e-05,0.0,0 STARLINK-4042,1 52661U 22053F   24197.09793593  .00001929  00000-0  13922-3 0  9991,2 52661  53.2174 339.2608 0001171  77.6856 282.4267 15.08841408120074,6917.876,95.437,540.551,538.931,0.0
52661.0,STARLINK-4042,PAYLOAD,2024-07-15 13:28:43,15.08836497,0.000132,53.2186,337.1837,101.3193,258.7947,4.4582e-05,4.22e-06,0.0,0 STARLINK-4042,1 52661U 22053F   24197.56161984  .00000422  00000-0  44582-4 0  9990,2 52661  53.2186 337.1837 0001320 101.3193 258.7947 15.08836497120144,6917.891,95.438,540.669,538.843,0.0
52661.0,STARLINK-4042,PAYLOAD,2024-07-15 16:39:30,15.088421,0.0001502,53.2191,336.5891,104.2439,255.872,0.00014649,2.044e-05,0.0,0 STARLINK-4042,1 52661U 22053F   24197.69409811  .00002044  00000-0  14649-3 0  9990,2 52661  53.2191 336.5891 0001502 104.2439 255.8720 15.08842100120167,6917.874,95.437,540.778,538.7,0.0
52661.0,STARLINK-4042,PAYLOAD,2024-07-16 13:19:30,15.08847949,0.0001339,53.2185,332.7229,98.1503,261.9642,0.00025949,3.845e-05,0.0,0 STARLINK-4042,1 52661U 22053F   24198.55521599  .00003845  00000-0  25949-3 0  9999,2 52661  53.2185 332.7229 0001339  98.1503 261.9642 15.08847949120295,6917.856,95.437,540.647,538.795,0.0
52661.0,STARLINK-4042,PAYLOAD,2024-07-16 14:54:53,15.08850539,0.000131,53.2173,332.4238,92.9237,267.1905,0.00032741,4.928e-05,0.0,0 STARLINK-4042,1 52661U 22053F   24198.62145482  .00004928  00000-0  32741-3 0  9991,2 52661  53.2173 332.4238 0001310  92.9237 267.1905 15.08850539120305,6917.848,95.437,540.619,538.807,0.0
52661.0,STARLINK-4042,PAYLOAD,2024-07-16 16:30:16,15.08859276,0.0001166,53.2178,332.1269,93.5447,266.5678,0.00049507,7.604e-05,0.0,0 STARLINK-4042,1 52661U 22053F   24198.68769074  .00007604  00000-0  49507-3 0  9998,2 52661  53.2178 332.1269 0001166  93.5447 266.5678 15.08859276120318,6917.821,95.436,540.493,538.88,0.0
52661.0,STARLINK-4042,PAYLOAD,2024-07-17 05:13:22,15.08826056,0.0001008,53.2184,329.7446,56.0231,304.0857,-4.0929e-05,-9.39e-06,0.0,0 STARLINK-4042,1 52661U 22053F   24199.21762579 -.00000939  00000-0 -40929-4 0  9997,2 52661  53.2184 329.7446 0001008  56.0231 304.0857 15.08826056120399,6917.923,95.438,540.485,539.091,0.0
52661.0,STARLINK-4042,PAYLOAD,2024-07-17 14:45:41,15.08836515,0.000115,53.2173,327.9621,69.77,290.3416,9.5673e-05,1.235e-05,0.0,0 STARLINK-4042,1 52661U 22053F   24199.61506369  .00001235  00000-0  95673-4 0  9998,2 52661  53.2173 327.9621 0001150  69.7700 290.3416 15.08836515120458,6917.891,95.438,540.552,538.96,0.0
52661.0,STARLINK-4042,PAYLOAD,2024-07-17 19:31:50,15.08847797,0.0001222,53.2169,327.0702,65.6619,294.4501,0.00057082,8.81e-05,0.0,0 STARLINK-4042,1 52661U 22053F   24199.81378072  .00008810  00000-0  57082-3 0  9995,2 52661  53.2169 327.0702 0001222  65.6619 294.4501 15.08847797120485,6917.857,95.437,540.567,538.876,0.0
52661.0,STARLINK-4042,PAYLOAD,2024-07-17 21:07:13,15.0885109,0.0001259,53.2169,326.7728,64.0405,296.0717,0.0011102,0.0001743,0.0,0 STARLINK-4042,1 52661U 22053F   24199.88002079  .00017430  00000-0  11102-2 0  9993,2 52661  53.2169 326.7728 0001259  64.0405 296.0717 15.08851090120494,6917.846,95.437,540.582,538.841,0.0
52661.0,STARLINK-4042,PAYLOAD,2024-07-18 03:28:46,15.08835508,0.0001207,53.2171,325.5831,68.5081,291.604,0.00060749,9.392e-05,0.0,0 STARLINK-4042,1 52661U 22053F   24200.14498606  .00009392  00000-0  60749-3 0  9990,2 52661  53.2171 325.5831 0001207  68.5081 291.6040 15.08835508120532,6917.894,95.438,540.594,538.924,0.0
52661.0,STARLINK-4042,PAYLOAD,2024-07-18 13:01:05,15.08865196,0.0001307,53.217,323.7991,62.9074,297.2051,0.0023571,0.00037451,0.0,0 STARLINK-4042,1 52661U 22053F   24200.54242413  .00037451  00000-0  23571-2 0  9995,2 52661  53.2170 323.7991 0001307  62.9074 297.2051 15.08865196120595,6917.803,95.436,540.573,538.764,0.0
52661.0,STARLINK-4042,PAYLOAD,2024-07-18 14:36:28,15.08867206,0.0001228,53.2169,323.5012,69.4303,290.6821,0.002226,0.00035343,0.0,0 STARLINK-4042,1 52661U 22053F   24200.60866247  .00035343  00000-0  22260-2 0  9991,2 52661  53.2169 323.5012 0001228  69.4303 290.6821 15.08867206120602,6917.797,95.436,540.512,538.813,0.0
52661.0,STARLINK-4042,PAYLOAD,2024-07-18 19:22:37,15.08883232,0.0001326,53.2169,322.6091,65.7989,294.3142,0.0025521,0.00040611,0.0,0 STARLINK-4042,1 52661U 22053F   24200.80737812  .00040611  00000-0  25521-2 0  9995,2 52661  53.2169 322.6091 0001326  65.7989 294.3142 15.08883232120634,6917.748,95.435,540.531,538.696,0.0
52661.0,STARLINK-4042,PAYLOAD,2024-07-19 04:54:56,15.0884417,0.0001133,53.2172,320.825,82.2832,277.8288,0.00023819,3.505e-05,0.0,0 STARLINK-4042,1 52661U 22053F   24201.20482102  .00003505  00000-0  23819-3 0  9999,2 52661  53.2172 320.8250 0001133  82.2832 277.8288 15.08844170120693,6917.868,95.437,540.516,538.949,0.0
52661.0,STARLINK-4042,PAYLOAD,2024-07-19 14:27:15,15.08853007,0.000113,53.2174,319.0408,80.0209,280.0911,0.0016016,0.00025302,0.0,0 STARLINK-4042,1 52661U 22053F   24201.60226127  .00025302  00000-0  16016-2 0  9995,2 52661  53.2174 319.0408 0001130  80.0209 280.0911 15.08853007120756,6917.841,95.437,540.487,538.924,0.0
52661.0,STARLINK-4042,PAYLOAD,2024-07-19 19:13:24,15.08868973,0.0001182,53.2173,318.1486,76.6434,283.469,0.0023039,0.00036598,0.0,0 STARLINK-4042,1 52661U 22053F   24201.80097887  .00036598  00000-0  23039-2 0  9998,2 52661  53.2173 318.1486 0001182  76.6434 283.4690 15.08868973120781,6917.792,95.436,540.475,538.839,0.0
